[{"OBJECT_NAME":"KUIPER-00065","OBJECT_ID":"2025-134AB","EPOCH":"2026-03-03T00:05:05.563104","MEAN_MOTION":14.79254283,"ECCENTRICITY":0.0001413,"INCLINATION":51.9022,"RA_OF_ASC_NODE":270.2378,"ARG_OF_PERICENTER":207.5333,"MEAN_ANOMALY":152.5554,"EPHEMERIS_TYPE":0,"CLASSIFICATION_TYPE":"U","NORAD_CAT_ID":64525,"ELEMENT_SET_NO":999,"REV_AT_EPOCH":3896,"BSTAR":0.00057507,"MEAN_MOTION_DOT":4.096e-5,"MEAN_MOTION_DDOT":0},{"OBJECT_NAME":"KUIPER-00066","OBJECT_ID":"2025-134AC","EPOCH":"2026-03-03T09:40:23.213280","MEAN_MOTION":15.23109886,"ECCENTRICITY":0.0001583,"INCLINATION":51.8728,"RA_OF_ASC_NODE":213.7505,"ARG_OF_PERICENTER":271.3862,"MEAN_ANOMALY":88.6937,"EPHEMERIS_TYPE":0,"CLASSIFICATION_TYPE":"U","NORAD_CAT_ID":64526,"ELEMENT_SET_NO":999,"REV_AT_EPOCH":3980,"BSTAR":0.00096802,"MEAN_MOTION_DOT":0.00022888,"MEAN_MOTION_DDOT":0},{"OBJECT_NAME":"KUIPER-00069","OBJECT_ID":"2025-151A","EPOCH":"2026-03-02T21:26:44.356416","MEAN_MOTION":14.79931677,"ECCENTRICITY":8.1e-5,"INCLINATION":51.9029,"RA_OF_ASC_NODE":310.6791,"ARG_OF_PERICENTER":78.9771,"MEAN_ANOMALY":281.1283,"EPHEMERIS_TYPE":0,"CLASSIFICATION_TYPE":"U","NORAD_CAT_ID":64816,"ELEMENT_SET_NO":999,"REV_AT_EPOCH":3575,"BSTAR":0.00015757,"MEAN_MOTION_DOT":9.8e-6,"MEAN_MOTION_DDOT":0},{"OBJECT_NAME":"KUIPER-00070","OBJECT_ID":"2025-151B","EPOCH":"2026-03-02T23:13:45.308064","MEAN_MOTION":14.79891796,"ECCENTRICITY":9.15e-5,"INCLINATION":51.9013,"RA_OF_ASC_NODE":335.2853,"ARG_OF_PERICENTER":92.7563,"MEAN_ANOMALY":267.3504,"EPHEMERIS_TYPE":0,"CLASSIFICATION_TYPE":"U","NORAD_CAT_ID":64817,"ELEMENT_SET_NO":999,"REV_AT_EPOCH":3542,"BSTAR":0.00081824,"MEAN_MOTION_DOT":6.016e-5,"MEAN_MOTION_DDOT":0},{"OBJECT_NAME":"KUIPER-00071","OBJECT_ID":"2025-151C","EPOCH":"2026-03-03T04:09:07.140384","MEAN_MOTION":14.80006353,"ECCENTRICITY":6.06e-5,"INCLINATION":51.9024,"RA_OF_ASC_NODE":331.8978,"ARG_OF_PERICENTER":230.892,"MEAN_ANOMALY":129.1989,"EPHEMERIS_TYPE":0,"CLASSIFICATION_TYPE":"U","NORAD_CAT_ID":64818,"ELEMENT_SET_NO":999,"REV_AT_EPOCH":3430,"BSTAR":0.00085587,"MEAN_MOTION_DOT":6.321e-5,"MEAN_MOTION_DDOT":0},{"OBJECT_NAME":"KUIPER-00072","OBJECT_ID":"2025-151D","EPOCH":"2026-03-03T02:14:33.846720","MEAN_MOTION":14.79968521,"ECCENTRICITY":0.0001308,"INCLINATION":51.8988,"RA_OF_ASC_NODE":312.2379,"ARG_OF_PERICENTER":83.337,"MEAN_ANOMALY":276.7741,"EPHEMERIS_TYPE":0,"CLASSIFICATION_TYPE":"U","NORAD_CAT_ID":64819,"ELEMENT_SET_NO":999,"REV_AT_EPOCH":3457,"BSTAR":0.00080534,"MEAN_MOTION_DOT":5.929e-5,"MEAN_MOTION_DDOT":0},{"OBJECT_NAME":"KUIPER-00073","OBJECT_ID":"2025-151E","EPOCH":"2026-03-03T03:20:45.983040","MEAN_MOTION":14.7993017,"ECCENTRICITY":0.0001012,"INCLINATION":51.9025,"RA_OF_ASC_NODE":332.0413,"ARG_OF_PERICENTER":103.181,"MEAN_ANOMALY":256.9265,"EPHEMERIS_TYPE":0,"CLASSIFICATION_TYPE":"U","NORAD_CAT_ID":64820,"ELEMENT_SET_NO":999,"REV_AT_EPOCH":3548,"BSTAR":-9.7125e-5,"MEAN_MOTION_DOT":-9.61e-6,"MEAN_MOTION_DDOT":0},{"OBJECT_NAME":"KUIPER-00074","OBJECT_ID":"2025-151F","EPOCH":"2026-03-03T12:00:00.998784","MEAN_MOTION":14.95420011,"ECCENTRICITY":6.36e-5,"INCLINATION":51.9042,"RA_OF_ASC_NODE":317.6133,"ARG_OF_PERICENTER":90.0036,"MEAN_ANOMALY":143.35,"EPHEMERIS_TYPE":0,"CLASSIFICATION_TYPE":"U","NORAD_CAT_ID":64821,"ELEMENT_SET_NO":999,"REV_AT_EPOCH":354,"BSTAR":0.0043982,"MEAN_MOTION_DOT":0.0004922,"MEAN_MOTION_DDOT":0},{"OBJECT_NAME":"KUIPER-00075","OBJECT_ID":"2025-151G","EPOCH":"2026-03-03T11:43:08.187744","MEAN_MOTION":15.41562899,"ECCENTRICITY":0.0003347,"INCLINATION":51.8696,"RA_OF_ASC_NODE":251.9696,"ARG_OF_PERICENTER":248.2436,"MEAN_ANOMALY":111.8196,"EPHEMERIS_TYPE":0,"CLASSIFICATION_TYPE":"U","NORAD_CAT_ID":64822,"ELEMENT_SET_NO":999,"REV_AT_EPOCH":3544,"BSTAR":0.0015506,"MEAN_MOTION_DOT":0.00066386,"MEAN_MOTION_DDOT":0},{"OBJECT_NAME":"KUIPER-00076","OBJECT_ID":"2025-151H","EPOCH":"2026-03-03T03:24:33.841440","MEAN_MOTION":14.80444302,"ECCENTRICITY":3.4e-5,"INCLINATION":51.9028,"RA_OF_ASC_NODE":321.9563,"ARG_OF_PERICENTER":347.2502,"MEAN_ANOMALY":12.8452,"EPHEMERIS_TYPE":0,"CLASSIFICATION_TYPE":"U","NORAD_CAT_ID":64823,"ELEMENT_SET_NO":999,"REV_AT_EPOCH":3444,"BSTAR":0.00078313,"MEAN_MOTION_DOT":5.826e-5,"MEAN_MOTION_DDOT":0},{"OBJECT_NAME":"KUIPER-00077","OBJECT_ID":"2025-151J","EPOCH":"2026-03-02T22:35:23.987904","MEAN_MOTION":14.80117002,"ECCENTRICITY":0.0001149,"INCLINATION":51.9027,"RA_OF_ASC_NODE":327.9313,"ARG_OF_PERICENTER":182.6871,"MEAN_ANOMALY":177.4085,"EPHEMERIS_TYPE":0,"CLASSIFICATION_TYPE":"U","NORAD_CAT_ID":64824,"ELEMENT_SET_NO":999,"REV_AT_EPOCH":3434,"BSTAR":0.00078503,"MEAN_MOTION_DOT":5.794e-5,"MEAN_MOTION_DDOT":0},{"OBJECT_NAME":"KUIPER-00078","OBJECT_ID":"2025-151K","EPOCH":"2026-03-02T23:29:18.040128","MEAN_MOTION":14.79935717,"ECCENTRICITY":7.51e-5,"INCLINATION":51.9023,"RA_OF_ASC_NODE":325.2638,"ARG_OF_PERICENTER":94.6443,"MEAN_ANOMALY":265.4606,"EPHEMERIS_TYPE":0,"CLASSIFICATION_TYPE":"U","NORAD_CAT_ID":64825,"ELEMENT_SET_NO":999,"REV_AT_EPOCH":3438,"BSTAR":0.00041594,"MEAN_MOTION_DOT":2.951e-5,"MEAN_MOTION_DDOT":0},{"OBJECT_NAME":"KUIPER-00079","OBJECT_ID":"2025-151L","EPOCH":"2026-03-03T03:24:27.717408","MEAN_MOTION":14.79941245,"ECCENTRICITY":0.0001125,"INCLINATION":51.9014,"RA_OF_ASC_NODE":329.5173,"ARG_OF_PERICENTER":91.2498,"MEAN_ANOMALY":268.8593,"EPHEMERIS_TYPE":0,"CLASSIFICATION_TYPE":"U","NORAD_CAT_ID":64826,"ELEMENT_SET_NO":999,"REV_AT_EPOCH":3553,"BSTAR":4.7685e-5,"MEAN_MOTION_DOT":1.42e-6,"MEAN_MOTION_DDOT":0},{"OBJECT_NAME":"KUIPER-00080","OBJECT_ID":"2025-151M","EPOCH":"2026-03-03T00:58:45.964128","MEAN_MOTION":14.79944326,"ECCENTRICITY":7.76e-5,"INCLINATION":51.9016,"RA_OF_ASC_NODE":329.9718,"ARG_OF_PERICENTER":88.7773,"MEAN_ANOMALY":271.3278,"EPHEMERIS_TYPE":0,"CLASSIFICATION_TYPE":"U","NORAD_CAT_ID":64827,"ELEMENT_SET_NO":999,"REV_AT_EPOCH":3432,"BSTAR":0.00054259,"MEAN_MOTION_DOT":3.919e-5,"MEAN_MOTION_DDOT":0},{"OBJECT_NAME":"KUIPER-00082","OBJECT_ID":"2025-151N","EPOCH":"2026-03-03T02:06:45.058464","MEAN_MOTION":14.79939135,"ECCENTRICITY":6.28e-5,"INCLINATION":51.9029,"RA_OF_ASC_NODE":317.2932,"ARG_OF_PERICENTER":97.3356,"MEAN_ANOMALY":262.7677,"EPHEMERIS_TYPE":0,"CLASSIFICATION_TYPE":"U","NORAD_CAT_ID":64828,"ELEMENT_SET_NO":999,"REV_AT_EPOCH":3450,"BSTAR":9.1964e-6,"MEAN_MOTION_DOT":-1.51e-6,"MEAN_MOTION_DDOT":0},{"OBJECT_NAME":"KUIPER-00083","OBJECT_ID":"2025-151P","EPOCH":"2026-03-02T22:40:40.904832","MEAN_MOTION":14.79943898,"ECCENTRICITY":6.62e-5,"INCLINATION":51.9029,"RA_OF_ASC_NODE":325.4156,"ARG_OF_PERICENTER":116.5097,"MEAN_ANOMALY":243.5934,"EPHEMERIS_TYPE":0,"CLASSIFICATION_TYPE":"U","NORAD_CAT_ID":64829,"ELEMENT_SET_NO":999,"REV_AT_EPOCH":3556,"BSTAR":0.00023705,"MEAN_MOTION_DOT":1.587e-5,"MEAN_MOTION_DDOT":0},{"OBJECT_NAME":"KUIPER-00084","OBJECT_ID":"2025-151Q","EPOCH":"2026-03-03T03:16:48.666432","MEAN_MOTION":14.79922207,"ECCENTRICITY":0.0001029,"INCLINATION":51.9024,"RA_OF_ASC_NODE":334.5518,"ARG_OF_PERICENTER":211.3122,"MEAN_ANOMALY":148.7779,"EPHEMERIS_TYPE":0,"CLASSIFICATION_TYPE":"U","NORAD_CAT_ID":64830,"ELEMENT_SET_NO":999,"REV_AT_EPOCH":3426,"BSTAR":-0.00015833,"MEAN_MOTION_DOT":-1.428e-5,"MEAN_MOTION_DDOT":0}]
